GAOFEN-1                
1 39150U 13018A   25112.22384823  .00001478  00000+0  21896-3 0  9992
2 39150  97.9516 186.6836 0017903 178.1353 181.9927 14.76497289646160
VNREDSAT 1              
1 39160U 13021B   25112.13722993  .00001330  00000+0  25763-3 0  9995
2 39160  97.9531 175.3833 0001502  89.0820 271.0556 14.64839520638667
ARIRANG-5 (KOMPSAT-5)   
1 39227U 13042A   25111.96843697  .00003278  00000+0  23818-3 0  9999
2 39227  97.6217 299.5552 0004425 119.7446 240.4220 15.04538791640581
SKYSAT-A                
1 39418U 13066C   25111.77204710  .00006791  00000+0  42359-3 0  9997
2 39418  97.4389 168.9695 0021993 331.1326  28.8685 15.09638555624831
DUBAISAT-2              
1 39419U 13066D   25112.19179188  .00007708  00000+0  53318-3 0  9991
2 39419  97.4341 110.4733 0013638  44.5094 315.7226 15.05889861622942
GPM-CORE                
1 39574U 14009C   25111.88563947  .00015618  00000+0  33322-3 0  9998
2 39574  64.9769 279.3748 0009599 260.6293  99.3763 15.45022784632759
SENTINEL-1A             
1 39634U 14016A   25112.20193888  .00000420  00000+0  98791-4 0  9990
2 39634  98.1813 120.8354 0001385  88.4088 271.7270 14.59200000588652
KAZEOSAT 1              
1 39731U 14024A   25112.19437414  .00000449  00000+0  15007-3 0  9990
2 39731  98.3606 189.0609 0001226  92.8033 267.3297 14.42020514577936
ALOS-2                  
1 39766U 14029A   25112.19226357  .00003720  00000+0  50498-3 0  9993
2 39766  97.9195 210.3978 0001661 106.9523 253.1870 14.79452492589367
KAZEOSAT 2              
1 40010U 14033A   25112.18432741  .00000724  00000+0  91963-4 0  9991
2 40010  97.5801 328.3176 0007520 267.1985  92.8369 14.84463756586485
HODOYOSHI-4             
1 40011U 14033B   25112.16212795  .00003025  00000+0  34570-3 0  9992
2 40011  97.5571 312.6067 0022772 259.2969 100.5683 14.86564036586239
DEIMOS-2                
1 40013U 14033D   25112.17079301  .00003471  00000+0  34920-3 0  9993
2 40013  97.6410 355.4724 0001080  71.5163 288.6173 14.91833896587781
HODOYOSHI-3             
1 40015U 14033F   25111.88230977  .00003238  00000+0  39334-3 0  9995
2 40015  97.6077 288.3476 0032464 302.7175  57.0911 14.83806522585112
SPOT 7                  
1 40053U 14034A   25112.16904044  .00001027  00000+0  22166-3 0  9992
2 40053  98.1150 179.2910 0001633  97.4564 262.6822 14.60388195575690
