[
  {
    "OBJECT_NAME": "GAOFEN-1",
    "OBJECT_ID": "2013-018A",
    "EPOCH": "2025-04-22T05:22:20.487072",
    "MEAN_MOTION": 14.76497289,
    "ECCENTRICITY": 0.0017903,
    "INCLINATION": 97.9516,
    "RA_OF_ASC_NODE": 186.6836,
    "ARG_OF_PERICENTER": 178.1353,
    "MEAN_ANOMALY": 181.9927,
    "EPHEMERIS_TYPE": 0,
    "CLASSIFICATION_TYPE": "U",
    "NORAD_CAT_ID": 39150,
    "ELEMENT_SET_NO": 999,
    "REV_AT_EPOCH": 64616,
    "BSTAR": 0.00021896,
    "MEAN_MOTION_DOT": 0.00001478,
    "MEAN_MOTION_DDOT": 0
  },
  {
    "OBJECT_NAME": "VNREDSAT 1",
    "OBJECT_ID": "2013-021B",
    "EPOCH": "2025-04-22T03:17:36.665952",
    "MEAN_MOTION": 14.6483952,
    "ECCENTRICITY": 0.0001502,
    "INCLINATION": 97.9531,
    "RA_OF_ASC_NODE": 175.3833,
    "ARG_OF_PERICENTER": 89.082,
    "MEAN_ANOMALY": 271.0556,
    "EPHEMERIS_TYPE": 0,
    "CLASSIFICATION_TYPE": "U",
    "NORAD_CAT_ID": 39160,
    "ELEMENT_SET_NO": 999,
    "REV_AT_EPOCH": 63866,
    "BSTAR": 0.00025763,
    "MEAN_MOTION_DOT": 0.0000133,
    "MEAN_MOTION_DDOT": 0
  },
  {
    "OBJECT_NAME": "ARIRANG-5 (KOMPSAT-5)",
    "OBJECT_ID": "2013-042A",
    "EPOCH": "2025-04-21T23:14:32.954208",
    "MEAN_MOTION": 15.04538791,
    "ECCENTRICITY": 0.0004425,
    "INCLINATION": 97.6217,
    "RA_OF_ASC_NODE": 299.5552,
    "ARG_OF_PERICENTER": 119.7446,
    "MEAN_ANOMALY": 240.422,
    "EPHEMERIS_TYPE": 0,
    "CLASSIFICATION_TYPE": "U",
    "NORAD_CAT_ID": 39227,
    "ELEMENT_SET_NO": 999,
    "REV_AT_EPOCH": 64058,
    "BSTAR": 0.00023818,
    "MEAN_MOTION_DOT": 0.00003278,
    "MEAN_MOTION_DDOT": 0
  },
  {
    "OBJECT_NAME": "SKYSAT-A",
    "OBJECT_ID": "2013-066C",
    "EPOCH": "2025-04-21T18:31:44.869440",
    "MEAN_MOTION": 15.09638555,
    "ECCENTRICITY": 0.0021993,
    "INCLINATION": 97.4389,
    "RA_OF_ASC_NODE": 168.9695,
    "ARG_OF_PERICENTER": 331.1326,
    "MEAN_ANOMALY": 28.8685,
    "EPHEMERIS_TYPE": 0,
    "CLASSIFICATION_TYPE": "U",
    "NORAD_CAT_ID": 39418,
    "ELEMENT_SET_NO": 999,
    "REV_AT_EPOCH": 62483,
    "BSTAR": 0.00042359,
    "MEAN_MOTION_DOT": 0.00006791,
    "MEAN_MOTION_DDOT": 0
  },
  {
    "OBJECT_NAME": "DUBAISAT-2",
    "OBJECT_ID": "2013-066D",
    "EPOCH": "2025-04-22T04:36:10.818432",
    "MEAN_MOTION": 15.05889861,
    "ECCENTRICITY": 0.0013638,
    "INCLINATION": 97.4341,
    "RA_OF_ASC_NODE": 110.4733,
    "ARG_OF_PERICENTER": 44.5094,
    "MEAN_ANOMALY": 315.7226,
    "EPHEMERIS_TYPE": 0,
    "CLASSIFICATION_TYPE": "U",
    "NORAD_CAT_ID": 39419,
    "ELEMENT_SET_NO": 999,
    "REV_AT_EPOCH": 62294,
    "BSTAR": 0.00053318,
    "MEAN_MOTION_DOT": 0.00007708,
    "MEAN_MOTION_DDOT": 0
  },
  {
    "OBJECT_NAME": "GPM-CORE",
    "OBJECT_ID": "2014-009C",
    "EPOCH": "2025-04-21T21:15:19.250208",
    "MEAN_MOTION": 15.45022784,
    "ECCENTRICITY": 0.0009599,
    "INCLINATION": 64.9769,
    "RA_OF_ASC_NODE": 279.3748,
    "ARG_OF_PERICENTER": 260.6293,
    "MEAN_ANOMALY": 99.3763,
    "EPHEMERIS_TYPE": 0,
    "CLASSIFICATION_TYPE": "U",
    "NORAD_CAT_ID": 39574,
    "ELEMENT_SET_NO": 999,
    "REV_AT_EPOCH": 63275,
    "BSTAR": 0.00033322,
    "MEAN_MOTION_DOT": 0.00015618,
    "MEAN_MOTION_DDOT": 0
  },
  {
    "OBJECT_NAME": "SENTINEL-1A",
    "OBJECT_ID": "2014-016A",
    "EPOCH": "2025-04-22T04:50:47.519232",
    "MEAN_MOTION": 14.592,
    "ECCENTRICITY": 0.0001385,
    "INCLINATION": 98.1813,
    "RA_OF_ASC_NODE": 120.8354,
    "ARG_OF_PERICENTER": 88.4088,
    "MEAN_ANOMALY": 271.727,
    "EPHEMERIS_TYPE": 0,
    "CLASSIFICATION_TYPE": "U",
    "NORAD_CAT_ID": 39634,
    "ELEMENT_SET_NO": 999,
    "REV_AT_EPOCH": 58865,
    "BSTAR": 0.000098791,
    "MEAN_MOTION_DOT": 0.0000042,
    "MEAN_MOTION_DDOT": 0
  },
  {
    "OBJECT_NAME": "KAZEOSAT 1",
    "OBJECT_ID": "2014-024A",
    "EPOCH": "2025-04-22T04:39:53.925696",
    "MEAN_MOTION": 14.42020514,
    "ECCENTRICITY": 0.0001226,
    "INCLINATION": 98.3606,
    "RA_OF_ASC_NODE": 189.0609,
    "ARG_OF_PERICENTER": 92.8033,
    "MEAN_ANOMALY": 267.3297,
    "EPHEMERIS_TYPE": 0,
    "CLASSIFICATION_TYPE": "U",
    "NORAD_CAT_ID": 39731,
    "ELEMENT_SET_NO": 999,
    "REV_AT_EPOCH": 57793,
    "BSTAR": 0.00015007,
    "MEAN_MOTION_DOT": 0.00000449,
    "MEAN_MOTION_DDOT": 0
  },
  {
    "OBJECT_NAME": "ALOS-2",
    "OBJECT_ID": "2014-029A",
    "EPOCH": "2025-04-22T04:36:51.572448",
    "MEAN_MOTION": 14.79452492,
    "ECCENTRICITY": 0.0001661,
    "INCLINATION": 97.9195,
    "RA_OF_ASC_NODE": 210.3978,
    "ARG_OF_PERICENTER": 106.9523,
    "MEAN_ANOMALY": 253.187,
    "EPHEMERIS_TYPE": 0,
    "CLASSIFICATION_TYPE": "U",
    "NORAD_CAT_ID": 39766,
    "ELEMENT_SET_NO": 999,
    "REV_AT_EPOCH": 58936,
    "BSTAR": 0.00050498,
    "MEAN_MOTION_DOT": 0.0000372,
    "MEAN_MOTION_DDOT": 0
  },
  {
    "OBJECT_NAME": "KAZEOSAT 2",
    "OBJECT_ID": "2014-033A",
    "EPOCH": "2025-04-22T04:25:25.888224",
    "MEAN_MOTION": 14.84463756,
    "ECCENTRICITY": 0.000752,
    "INCLINATION": 97.5801,
    "RA_OF_ASC_NODE": 328.3176,
    "ARG_OF_PERICENTER": 267.1985,
    "MEAN_ANOMALY": 92.8369,
    "EPHEMERIS_TYPE": 0,
    "CLASSIFICATION_TYPE": "U",
    "NORAD_CAT_ID": 40010,
    "ELEMENT_SET_NO": 999,
    "REV_AT_EPOCH": 58648,
    "BSTAR": 0.000091963,
    "MEAN_MOTION_DOT": 0.00000724,
    "MEAN_MOTION_DDOT": 0
  },
  {
    "OBJECT_NAME": "HODOYOSHI-4",
    "OBJECT_ID": "2014-033B",
    "EPOCH": "2025-04-22T03:53:27.854880",
    "MEAN_MOTION": 14.86564036,
    "ECCENTRICITY": 0.0022772,
    "INCLINATION": 97.5571,
    "RA_OF_ASC_NODE": 312.6067,
    "ARG_OF_PERICENTER": 259.2969,
    "MEAN_ANOMALY": 100.5683,
    "EPHEMERIS_TYPE": 0,
    "CLASSIFICATION_TYPE": "U",
    "NORAD_CAT_ID": 40011,
    "ELEMENT_SET_NO": 999,
    "REV_AT_EPOCH": 58623,
    "BSTAR": 0.0003457,
    "MEAN_MOTION_DOT": 0.00003025,
    "MEAN_MOTION_DDOT": 0
  },
  {
    "OBJECT_NAME": "DEIMOS-2",
    "OBJECT_ID": "2014-033D",
    "EPOCH": "2025-04-22T04:05:56.516064",
    "MEAN_MOTION": 14.91833896,
    "ECCENTRICITY": 0.000108,
    "INCLINATION": 97.641,
    "RA_OF_ASC_NODE": 355.4724,
    "ARG_OF_PERICENTER": 71.5163,
    "MEAN_ANOMALY": 288.6173,
    "EPHEMERIS_TYPE": 0,
    "CLASSIFICATION_TYPE": "U",
    "NORAD_CAT_ID": 40013,
    "ELEMENT_SET_NO": 999,
    "REV_AT_EPOCH": 58778,
    "BSTAR": 0.0003492,
    "MEAN_MOTION_DOT": 0.00003471,
    "MEAN_MOTION_DDOT": 0
  },
  {
    "OBJECT_NAME": "HODOYOSHI-3",
    "OBJECT_ID": "2014-033F",
    "EPOCH": "2025-04-21T21:10:31.564128",
    "MEAN_MOTION": 14.83806522,
    "ECCENTRICITY": 0.0032464,
    "INCLINATION": 97.6077,
    "RA_OF_ASC_NODE": 288.3476,
    "ARG_OF_PERICENTER": 302.7175,
    "MEAN_ANOMALY": 57.0911,
    "EPHEMERIS_TYPE": 0,
    "CLASSIFICATION_TYPE": "U",
    "NORAD_CAT_ID": 40015,
    "ELEMENT_SET_NO": 999,
    "REV_AT_EPOCH": 58511,
    "BSTAR": 0.00039334,
    "MEAN_MOTION_DOT": 0.00003238,
    "MEAN_MOTION_DDOT": 0
  },
  {
    "OBJECT_NAME": "SPOT 7",
    "OBJECT_ID": "2014-034A",
    "EPOCH": "2025-04-22T04:03:25.094016",
    "MEAN_MOTION": 14.60388195,
    "ECCENTRICITY": 0.0001633,
    "INCLINATION": 98.115,
    "RA_OF_ASC_NODE": 179.291,
    "ARG_OF_PERICENTER": 97.4564,
    "MEAN_ANOMALY": 262.6822,
    "EPHEMERIS_TYPE": 0,
    "CLASSIFICATION_TYPE": "U",
    "NORAD_CAT_ID": 40053,
    "ELEMENT_SET_NO": 999,
    "REV_AT_EPOCH": 57569,
    "BSTAR": 0.00022166,
    "MEAN_MOTION_DOT": 0.00001027,
    "MEAN_MOTION_DDOT": 0
  }
]